{"fetched_at":"2026-07-17T17:38:19.080Z","source":"https://celestrak.org/NORAD/elements/gp.php?NAME=HULIANWANG&FORMAT=JSON","constellation":"guowang","records":[{"OBJECT_NAME":"HULIANWANG DIGUI-28","OBJECT_ID":"2025-086J","EPOCH":"2026-07-17T07:29:18.676608","CLASSIFICATION_TYPE":"U","MEAN_MOTION":13.24411048,"ECCENTRICITY":0.00021193,"INCLINATION":86.5021,"RA_OF_ASC_NODE":302.7845,"ARG_OF_PERICENTER":111.1364,"MEAN_ANOMALY":248.9997,"EPHEMERIS_TYPE":0,"NORAD_CAT_ID":63695,"ELEMENT_SET_NO":999,"REV_AT_EPOCH":5884,"BSTAR":0.00011642062,"MEAN_MOTION_DOT":6.5e-7,"MEAN_MOTION_DDOT":0},{"OBJECT_NAME":"HULIANWANG DIGUI-29","OBJECT_ID":"2025-086K","EPOCH":"2026-07-17T07:18:28.811232","CLASSIFICATION_TYPE":"U","MEAN_MOTION":13.24411397,"ECCENTRICITY":0.00019813,"INCLINATION":86.5049,"RA_OF_ASC_NODE":302.9032,"ARG_OF_PERICENTER":113.3304,"MEAN_ANOMALY":246.8039,"EPHEMERIS_TYPE":0,"NORAD_CAT_ID":63696,"ELEMENT_SET_NO":999,"REV_AT_EPOCH":5884,"BSTAR":0.000091156189,"MEAN_MOTION_DOT":5.4e-7,"MEAN_MOTION_DDOT":0},{"OBJECT_NAME":"HULIANWANG DIGUI-30","OBJECT_ID":"2025-121A","EPOCH":"2026-07-17T05:40:24.383712","CLASSIFICATION_TYPE":"U","MEAN_MOTION":13.244095,"ECCENTRICITY":0.00019461,"INCLINATION":86.4997,"RA_OF_ASC_NODE":3.4169,"ARG_OF_PERICENTER":89.0399,"MEAN_ANOMALY":271.0958,"EPHEMERIS_TYPE":0,"NORAD_CAT_ID":64283,"ELEMENT_SET_NO":999,"REV_AT_EPOCH":5413,"BSTAR":-0.000007152747,"MEAN_MOTION_DOT":1.2e-7,"MEAN_MOTION_DDOT":0},{"OBJECT_NAME":"HULIANWANG DIGUI-31","OBJECT_ID":"2025-121B","EPOCH":"2026-07-17T05:29:35.484288","CLASSIFICATION_TYPE":"U","MEAN_MOTION":13.24414489,"ECCENTRICITY":0.00019418,"INCLINATION":86.5018,"RA_OF_ASC_NODE":3.4965,"ARG_OF_PERICENTER":89.4451,"MEAN_ANOMALY":270.6905,"EPHEMERIS_TYPE":0,"NORAD_CAT_ID":64284,"ELEMENT_SET_NO":999,"REV_AT_EPOCH":5413,"BSTAR":-0.000029710158,"MEAN_MOTION_DOT":2e-8,"MEAN_MOTION_DDOT":0},{"OBJECT_NAME":"HULIANWANG DIGUI-32","OBJECT_ID":"2025-121C","EPOCH":"2026-07-17T05:18:30.863520","CLASSIFICATION_TYPE":"U","MEAN_MOTION":13.24410363,"ECCENTRICITY":0.00019103,"INCLINATION":86.4959,"RA_OF_ASC_NODE":3.2527,"ARG_OF_PERICENTER":93.6773,"MEAN_ANOMALY":266.458,"EPHEMERIS_TYPE":0,"NORAD_CAT_ID":64285,"ELEMENT_SET_NO":999,"REV_AT_EPOCH":5413,"BSTAR":-0.000045841947,"MEAN_MOTION_DOT":-5e-8,"MEAN_MOTION_DDOT":0},{"OBJECT_NAME":"HULIANWANG DIGUI-33","OBJECT_ID":"2025-121D","EPOCH":"2026-07-17T06:56:26.040192","CLASSIFICATION_TYPE":"U","MEAN_MOTION":13.24409996,"ECCENTRICITY":0.00019572,"INCLINATION":86.5017,"RA_OF_ASC_NODE":3.4596,"ARG_OF_PERICENTER":89.8943,"MEAN_ANOMALY":270.2415,"EPHEMERIS_TYPE":0,"NORAD_CAT_ID":64286,"ELEMENT_SET_NO":999,"REV_AT_EPOCH":5414,"BSTAR":-0.000047307944,"MEAN_MOTION_DOT":-6e-8,"MEAN_MOTION_DDOT":0},{"OBJECT_NAME":"HULIANWANG DIGUI-34","OBJECT_ID":"2025-121E","EPOCH":"2026-07-17T04:56:49.090272","CLASSIFICATION_TYPE":"U","MEAN_MOTION":13.24410651,"ECCENTRICITY":0.00020574,"INCLINATION":86.4989,"RA_OF_ASC_NODE":3.3909,"ARG_OF_PERICENTER":81.3738,"MEAN_ANOMALY":278.7629,"EPHEMERIS_TYPE":0,"NORAD_CAT_ID":64287,"ELEMENT_SET_NO":999,"REV_AT_EPOCH":5413,"BSTAR":-0.000006876931,"MEAN_MOTION_DOT":1.2e-7,"MEAN_MOTION_DDOT":0},{"OBJECT_NAME":"HULIANWANG DIGUI-35","OBJECT_ID":"2025-159A","EPOCH":"2026-07-17T05:51:27.349920","CLASSIFICATION_TYPE":"U","MEAN_MOTION":13.24413263,"ECCENTRICITY":0.00044229,"INCLINATION":86.4939,"RA_OF_ASC_NODE":272.2763,"ARG_OF_PERICENTER":61.6325,"MEAN_ANOMALY":298.5255,"EPHEMERIS_TYPE":0,"NORAD_CAT_ID":64956,"ELEMENT_SET_NO":999,"REV_AT_EPOCH":4710,"BSTAR":0.00009851291,"MEAN_MOTION_DOT":5.7e-7,"MEAN_MOTION_DDOT":0},{"OBJECT_NAME":"HULIANWANG DIGUI-36","OBJECT_ID":"2025-159B","EPOCH":"2026-07-17T07:34:37.237728","CLASSIFICATION_TYPE":"U","MEAN_MOTION":13.24408727,"ECCENTRICITY":0.00016527,"INCLINATION":86.4959,"RA_OF_ASC_NODE":272.3182,"ARG_OF_PERICENTER":102.6314,"MEAN_ANOMALY":257.5005,"EPHEMERIS_TYPE":0,"NORAD_CAT_ID":64957,"ELEMENT_SET_NO":999,"REV_AT_EPOCH":4711,"BSTAR":0.00012538721,"MEAN_MOTION_DOT":6.8e-7,"MEAN_MOTION_DDOT":0},{"OBJECT_NAME":"HULIANWANG DIGUI-37","OBJECT_ID":"2025-159C","EPOCH":"2026-07-17T07:23:43.067040","CLASSIFICATION_TYPE":"U","MEAN_MOTION":13.24409426,"ECCENTRICITY":0.00017812,"INCLINATION":86.49,"RA_OF_ASC_NODE":272.107,"ARG_OF_PERICENTER":98.0176,"MEAN_ANOMALY":262.116,"EPHEMERIS_TYPE":0,"NORAD_CAT_ID":64958,"ELEMENT_SET_NO":999,"REV_AT_EPOCH":4711,"BSTAR":0.00013416961,"MEAN_MOTION_DOT":7.2e-7,"MEAN_MOTION_DDOT":0},{"OBJECT_NAME":"HULIANWANG DIGUI-38","OBJECT_ID":"2025-159D","EPOCH":"2026-07-17T07:12:53.436672","CLASSIFICATION_TYPE":"U","MEAN_MOTION":13.24409091,"ECCENTRICITY":0.0001841,"INCLINATION":86.4958,"RA_OF_ASC_NODE":272.3111,"ARG_OF_PERICENTER":98.92,"MEAN_ANOMALY":261.2143,"EPHEMERIS_TYPE":0,"NORAD_CAT_ID":64959,"ELEMENT_SET_NO":999,"REV_AT_EPOCH":4711,"BSTAR":0.00012560387,"MEAN_MOTION_DOT":6.9e-7,"MEAN_MOTION_DDOT":0},{"OBJECT_NAME":"HULIANWANG DIGUI-39","OBJECT_ID":"2025-159E","EPOCH":"2026-07-17T07:01:59.608128","CLASSIFICATION_TYPE":"U","MEAN_MOTION":13.24408948,"ECCENTRICITY":0.00018106,"INCLINATION":86.4934,"RA_OF_ASC_NODE":272.2222,"ARG_OF_PERICENTER":102.0015,"MEAN_ANOMALY":258.1322,"EPHEMERIS_TYPE":0,"NORAD_CAT_ID":64960,"ELEMENT_SET_NO":999,"REV_AT_EPOCH":4711,"BSTAR":0.000093256264,"MEAN_MOTION_DOT":5.5e-7,"MEAN_MOTION_DDOT":0},{"OBJECT_NAME":"HULIANWANG DIGUI-40","OBJECT_ID":"2025-162A","EPOCH":"2026-07-17T07:30:50.160384","CLASSIFICATION_TYPE":"U","MEAN_MOTION":13.29327425,"ECCENTRICITY":0.00002845,"INCLINATION":49.998,"RA_OF_ASC_NODE":157.8824,"ARG_OF_PERICENTER":327.5901,"MEAN_ANOMALY":32.4954,"EPHEMERIS_TYPE":0,"NORAD_CAT_ID":65043,"ELEMENT_SET_NO":999,"REV_AT_EPOCH":4735,"BSTAR":0.000038612284,"MEAN_MOTION_DOT":-0.00000106,"MEAN_MOTION_DDOT":0},{"OBJECT_NAME":"HULIANWANG DIGUI-41","OBJECT_ID":"2025-162B","EPOCH":"2026-07-17T07:18:49.913568","CLASSIFICATION_TYPE":"U","MEAN_MOTION":13.29327028,"ECCENTRICITY":0.00002658,"INCLINATION":49.999,"RA_OF_ASC_NODE":157.8666,"ARG_OF_PERICENTER":337.9428,"MEAN_ANOMALY":22.1432,"EPHEMERIS_TYPE":0,"NORAD_CAT_ID":65044,"ELEMENT_SET_NO":999,"REV_AT_EPOCH":4736,"BSTAR":0.000027566978,"MEAN_MOTION_DOT":-0.00000111,"MEAN_MOTION_DDOT":0},{"OBJECT_NAME":"HULIANWANG DIGUI-42","OBJECT_ID":"2025-162C","EPOCH":"2026-07-17T05:18:26.905536","CLASSIFICATION_TYPE":"U","MEAN_MOTION":13.29327679,"ECCENTRICITY":0.00002744,"INCLINATION":49.9955,"RA_OF_ASC_NODE":157.9957,"ARG_OF_PERICENTER":326.6469,"MEAN_ANOMALY":33.4386,"EPHEMERIS_TYPE":0,"NORAD_CAT_ID":65045,"ELEMENT_SET_NO":999,"REV_AT_EPOCH":4735,"BSTAR":0.000021526441,"MEAN_MOTION_DOT":-0.00000114,"MEAN_MOTION_DDOT":0},{"OBJECT_NAME":"HULIANWANG DIGUI-43","OBJECT_ID":"2025-162D","EPOCH":"2026-07-17T06:54:44.055360","CLASSIFICATION_TYPE":"U","MEAN_MOTION":13.29326242,"ECCENTRICITY":0.00003131,"INCLINATION":49.9972,"RA_OF_ASC_NODE":157.7318,"ARG_OF_PERICENTER":322.234,"MEAN_ANOMALY":37.851,"EPHEMERIS_TYPE":0,"NORAD_CAT_ID":65046,"ELEMENT_SET_NO":999,"REV_AT_EPOCH":4736,"BSTAR":0.000019538367,"MEAN_MOTION_DOT":-0.00000115,"MEAN_MOTION_DDOT":0}]}
