HULIANWANG DIGUI-28     
1 63695U 25086J   26198.31202172  .00000065  00000+0  11642-3 0  9991
2 63695  86.5021 302.7845 0002119 111.1364 248.9997 13.24411048 58843
HULIANWANG DIGUI-29     
1 63696U 25086K   26198.30450013  .00000054  00000+0  91156-4 0  9997
2 63696  86.5049 302.9032 0001981 113.3304 246.8039 13.24411397 58849
HULIANWANG DIGUI-30     
1 64283U 25121A   26198.23639333  .00000012  00000+0 -71527-5 0  9992
2 64283  86.4997   3.4169 0001946  89.0399 271.0958 13.24409500 54132
HULIANWANG DIGUI-31     
1 64284U 25121B   26198.22888292  .00000002  00000+0 -29710-4 0  9997
2 64284  86.5018   3.4965 0001941  89.4451 270.6905 13.24414489 54139
HULIANWANG DIGUI-32     
1 64285U 25121C   26198.22119055 -.00000005  00000+0 -45842-4 0  9990
2 64285  86.4959   3.2527 0001910  93.6773 266.4580 13.24410363 54134
HULIANWANG DIGUI-33     
1 64286U 25121D   26198.28919028 -.00000006  00000+0 -47308-4 0  9995
2 64286  86.5017   3.4596 0001957  89.8943 270.2415 13.24409996 54147
HULIANWANG DIGUI-34     
1 64287U 25121E   26198.20612373  .00000012  00000+0 -68769-5 0  9992
2 64287  86.4989   3.3909 0002057  81.3738 278.7629 13.24410651 54132
HULIANWANG DIGUI-35     
1 64956U 25159A   26198.24406655  .00000057  00000+0  98513-4 0  9991
2 64956  86.4939 272.2763 0004422  61.6325 298.5255 13.24413263 47102
HULIANWANG DIGUI-36     
1 64957U 25159B   26198.31570877  .00000068  00000+0  12539-3 0  9993
2 64957  86.4959 272.3182 0001652 102.6314 257.5005 13.24408727 47115
HULIANWANG DIGUI-37     
1 64958U 25159C   26198.30813735  .00000072  00000+0  13417-3 0  9997
2 64958  86.4900 272.1070 0001781  98.0176 262.1160 13.24409426 47114
HULIANWANG DIGUI-38     
1 64959U 25159D   26198.30061848  .00000069  00000+0  12560-3 0  9992
2 64959  86.4958 272.3111 0001841  98.9200 261.2143 13.24409091 47119
HULIANWANG DIGUI-39     
1 64960U 25159E   26198.29305102  .00000055  00000+0  93256-4 0  9993
2 64960  86.4934 272.2222 0001810 102.0015 258.1322 13.24408948 47118
HULIANWANG DIGUI-40     
1 65043U 25162A   26198.31308056 -.00000106  00000+0  38612-4 0  9997
2 65043  49.9980 157.8824 0000284 327.5901  32.4954 13.29327425 47359
HULIANWANG DIGUI-41     
1 65044U 25162B   26198.30474437 -.00000111  00000+0  27567-4 0  9997
2 65044  49.9990 157.8666 0000265 337.9428  22.1432 13.29327028 47360
HULIANWANG DIGUI-42     
1 65045U 25162C   26198.22114474 -.00000114  00000+0  21526-4 0  9993
2 65045  49.9955 157.9957 0000274 326.6469  33.4386 13.29327679 47350
HULIANWANG DIGUI-43     
1 65046U 25162D   26198.28800990 -.00000115  00000+0  19538-4 0  9996
2 65046  49.9972 157.7318 0000313 322.2340  37.8510 13.29326242 47366
